OBJECT_NAME,OBJECT_ID,EPOCH,MEAN_MOTION,ECCENTRICITY,INCLINATION,RA_OF_ASC_NODE,ARG_OF_PERICENTER,MEAN_ANOMALY,EPHEMERIS_TYPE,CLASSIFICATION_TYPE,NORAD_CAT_ID,ELEMENT_SET_NO,REV_AT_EPOCH,BSTAR,MEAN_MOTION_DOT,MEAN_MOTION_DDOT
BEIDOU-2 IGSO-5 (C10),2011-073A,2026-07-02T17:30:18.330912,1.00270596,.01145273,47.6496,271.3544,222.0502,141.5350,0,U,37948,999,5329,0,-.128E-5,0
LUCH 5A (SDCM/PRN 140),2011-074B,2026-07-17T20:54:41.146848,1.00273626,.00027084,8.8300,73.3548,60.3084,282.6929,0,U,37951,999,5335,0,-.61E-6,0
BEIDOU-2 G5 (C05),2012-008A,2026-07-17T23:32:38.761152,1.00271104,.00072939,3.6488,69.5023,268.9390,9.1611,0,U,38091,999,5267,0,.47E-6,0
BEIDOU-2 M3 (C11),2012-018A,2026-07-17T19:05:16.894752,1.86229645,.00210447,55.7296,303.8435,272.1726,87.6188,0,U,38250,999,9651,0,-.87E-6,0
BEIDOU-2 M4 (C12),2012-018B,2026-07-16T15:41:25.231200,1.86229271,.0012145,55.6306,303.0936,272.2408,87.6521,0,U,38251,999,9649,0,-.78E-6,0
SES-5 (EGNOS/PRN 136),2012-036A,2026-07-18T05:02:38.645664,1.00271805,.00019299,0.0433,324.7505,152.9947,258.9016,0,U,38652,999,4476,0,.25E-6,0
BEIDOU-2 M6 (C14),2012-050B,2026-07-17T23:22:51.951360,1.86230950,.00128115,56.5713,61.8766,1.9822,358.0915,0,U,38775,999,9388,0,-.62E-6,0
GSAT-10 (GAGAN/PRN 128),2012-051B,2026-07-17T23:55:55.601184,1.00272761,.00074828,0.0834,264.3769,190.6261,282.7825,0,U,38779,999,5040,0,-.174E-5,0
GPS BIIF-3  (PRN 24),2012-053A,2026-07-17T17:29:21.050304,2.00567979,.01821827,53.5899,142.3481,66.2680,295.6020,0,U,38833,999,10005,0,.22E-6,0
GSAT0103 (GALILEO-FM3),2012-055A,2026-07-16T05:14:38.805216,1.70473424,.0003594,55.8227,100.7486,314.9576,45.0469,0,U,38857,999,8550,0,-.26E-6,0
BEIDOU-2 G6 (C02),2012-059A,2026-07-17T23:04:03.265824,1.00273227,.00087673,4.4975,73.1882,327.1485,325.4488,0,U,38953,999,5021,0,-.186E-5,0
LUCH 5B (SDCM/PRN 125),2012-061A,2026-07-17T21:44:56.643360,1.00270306,.00038458,10.5487,49.5742,147.3176,48.7710,0,U,38977,999,4991,0,-.15E-5,0
COSMOS 2485 (747),2013-019A,2026-07-17T09:53:07.452384,2.13103096,.00225849,65.4363,72.5906,230.9016,128.9717,0,U,39155,999,10292,0,-.24E-6,0
GPS BIIF-4  (PRN 27),2013-023A,2026-07-18T02:16:55.693920,2.00563355,.01413858,54.4806,267.7131,51.1121,310.2133,0,U,39166,999,9650,0,-.33E-6,0
IRNSS-1A,2013-034A,2026-07-10T17:17:25.712736,1.00281941,.0017567,35.7704,63.5328,183.4462,356.2994,0,U,39199,999,4760,0,.47E-6,0
GPS BIIF-5  (PRN 30),2014-008A,2026-07-18T02:19:34.999968,2.00561763,.00840629,53.6580,148.0590,231.5632,127.6506,0,U,39533,999,9030,0,.29E-6,0
ASTRA 5B (EGNOS/PRN 123),2014-011B,2026-07-18T06:29:38.781600,1.00269805,.00019959,0.0700,305.5527,179.2891,292.0954,0,U,39617,999,4497,0,.129E-5,0
COSMOS 2492 (754),2014-012A,2026-07-16T10:22:23.706048,2.13103163,.00102943,65.2787,312.9423,317.3344,42.6017,0,U,39620,999,9586,0,-.64E-6,0
IRNSS-1B,2014-017A,2026-07-17T16:57:12.386304,1.00276558,.00222538,28.8716,239.8770,191.9011,173.2190,0,U,39635,999,4510,0,.12E-5,0
LUCH 5V (SDCM/PRN 141),2014-023A,2026-07-18T00:52:21.806400,1.00272656,.00020797,5.2074,69.4219,84.4887,249.7582,0,U,39727,999,4466,0,-.279E-5,0
GPS BIIF-6  (PRN 06),2014-026A,2026-07-17T20:59:15.794304,2.00558723,.0038155,56.4817,330.3232,325.7125,34.0431,0,U,39741,999,8915,0,-.1E-5,0
COSMOS 2500 (755),2014-032A,2026-07-17T12:57:46.064736,2.13105727,.00083487,65.2130,312.6492,190.7929,169.2087,0,U,40001,999,9410,0,-.68E-6,0
GPS BIIF-7  (PRN 09),2014-045A,2026-07-17T11:13:19.050240,2.00560402,.00345283,55.3728,87.2585,118.4118,241.9927,0,U,40105,999,8668,0,-.3E-6,0
GSAT0201 (GALILEO 5),2014-050A,2026-07-15T23:35:44.117664,1.85519415,.16787096,48.8430,272.2541,180.5497,179.3011,0,U,40128,999,7885,0,-.37E-6,0
GSAT0202 (GALILEO 6),2014-050B,2026-07-17T20:31:57.990720,1.85520332,.16801746,48.8588,271.2629,181.3093,178.2437,0,U,40129,999,8105,0,-.54E-6,0
IRNSS-1C,2014-061A,2026-07-17T17:05:19.132800,1.00271928,.00220196,6.5925,88.3505,5.7430,180.8130,0,U,40269,999,4299,0,-.174E-5,0
GPS BIIF-8  (PRN 03),2014-068A,2026-07-17T20:01:43.584672,2.00553365,.00674258,57.0087,29.7751,72.3845,288.3896,0,U,40294,999,8582,0,-.83E-6,0
COSMOS 2501 (702K),2014-075A,2026-07-14T01:09:44.871264,2.13101105,.0022586,63.6185,189.4424,212.6579,147.2095,0,U,40315,999,9042,0,.65E-6,0
GPS BIIF-9  (PRN 26),2015-013A,2026-07-17T23:25:29.712576,2.00549510,.01104693,53.1659,202.9042,40.4150,320.4084,0,U,40534,999,8244,0,.44E-6,0
GSAT0203 (GALILEO 7),2015-017A,2026-07-17T03:05:03.049728,1.70476213,.0002702,56.7761,340.7804,254.9804,104.9775,0,U,40544,999,6971,0,-.104E-5,0
GSAT0204 (GALILEO 8),2015-017B,2026-07-17T09:13:30.583200,1.70475773,.00028604,56.7837,340.7922,234.6029,125.3588,0,U,40545,999,3276,0,-.104E-5,0
